[{"OBJECT_NAME":"SPACEMOBILE-003","OBJECT_ID":"2024-163A","EPOCH":"2026-03-09T22:12:19.490976","MEAN_MOTION":15.21123945,"ECCENTRICITY":0.00061285,"INCLINATION":52.9672,"RA_OF_ASC_NODE":45.9892,"ARG_OF_PERICENTER":185.2661,"MEAN_ANOMALY":174.827,"EPHEMERIS_TYPE":0,"CLASSIFICATION_TYPE":"U","NORAD_CAT_ID":61045,"ELEMENT_SET_NO":999,"REV_AT_EPOCH":8266,"BSTAR":0.00043932045,"MEAN_MOTION_DOT":9.59e-5,"MEAN_MOTION_DDOT":0},{"OBJECT_NAME":"SITRO-AIS-62","OBJECT_ID":"2025-313BA","EPOCH":"2026-03-09T22:28:04.503072","MEAN_MOTION":15.2313984,"ECCENTRICITY":0.00083903,"INCLINATION":97.4013,"RA_OF_ASC_NODE":145.3565,"ARG_OF_PERICENTER":355.0929,"MEAN_ANOMALY":5.0224,"EPHEMERIS_TYPE":0,"CLASSIFICATION_TYPE":"U","NORAD_CAT_ID":67296,"ELEMENT_SET_NO":999,"REV_AT_EPOCH":1086,"BSTAR":0.00055522855,"MEAN_MOTION_DOT":0.00013063,"MEAN_MOTION_DDOT":0}]
